NORAD_CAT_ID,OBJECT_NAME,OBJECT_TYPE,EPOCH,MEAN_MOTION,ECCENTRICITY,INCLINATION,RA_OF_ASC_NODE,ARG_OF_PERICENTER,MEAN_ANOMALY,BSTAR,MEAN_MOTION_DOT,MEAN_MOTION_DDOT,TLE_LINE0,TLE_LINE1,TLE_LINE2,SEMIMAJOR_AXIS,PERIOD,APOGEE,PERIGEE,DECAYED
51883.0,STARLINK-3576,PAYLOAD,2022-07-02 22:00:00,15.08872193,0.0001654,53.2172,280.5347,48.0232,35.2641,-0.0015028,-0.00024147,0.0,0 STARLINK-3576,1 51883U 22022AH  22183.91667824 -.00024147  00000-0 -15028-2 0  9990,2 51883  53.2172 280.5347 0001654  48.0232  35.2641 15.08872193  1300,6917.781999999997,95.436,540.7909999999998,538.503,0.0
51883.0,STARLINK-3576,PAYLOAD,2022-07-03 14:00:01,15.08853402,0.000167,53.2171,277.5429,47.7869,58.7451,-0.002824,-0.00044968,0.0,0 STARLINK-3576,1 51883U 22022AH  22184.58334491 -.00044968  00000-0 -28240-2 0  9998,2 51883  53.2171 277.5429 0001670  47.7869  58.7451 15.08853402 20173,6917.839,95.437,540.86,538.549,0.0
51883.0,STARLINK-3576,PAYLOAD,2022-07-03 22:00:00,15.08829127,0.0001628,53.2166,276.0456,49.82899999999999,68.2932,-0.0018767,-0.00030023,0.0,0 STARLINK-3576,1 51883U 22022AH  22184.91667824 -.00030023  00000-0 -18767-2 0  9994,2 51883  53.2166 276.0456 0001628  49.8290  68.2932 15.08829127  1306,6917.9140000000025,95.438,540.905,538.6519999999998,0.0
51883.0,STARLINK-3576,PAYLOAD,2022-07-04 06:00:00,15.0881567,0.0001561999999999,53.2167,274.5485,56.455,73.233,0.0011083,0.00017383,0.0,0 STARLINK-3576,1 51883U 22022AH  22185.25001157  .00017383  00000-0  11083-2 0  9999,2 51883  53.2167 274.5485 0001562  56.4550  73.2330 15.08815670 20275,6917.955,95.439,540.9,538.739,0.0
51883.0,STARLINK-3576,PAYLOAD,2022-07-04 14:00:01,15.0881357,0.0001719,53.2164,273.0541,49.4292,91.8323,0.0005343,8.22e-05,0.0,0 STARLINK-3576,1 51883U 22022AH  22185.58334491  .00008220  00000-0  53430-3 0  9998,2 51883  53.2164 273.0541 0001719  49.4292  91.8323 15.08813570  1306,6917.9609999999975,95.439,541.015,538.637,0.0
51883.0,STARLINK-3576,PAYLOAD,2022-07-04 22:00:00,15.08843438,0.0001636,53.216,271.5566,50.0978,102.7359,-0.0016338,-0.00026198,0.0,0 STARLINK-3576,1 51883U 22022AH  22185.91667824 -.00026198  00000-0 -16338-2 0  9995,2 51883  53.2160 271.5566 0001636  50.0978 102.7359 15.08843438  1306,6917.87,95.437,540.867,538.6030000000002,0.0
51883.0,STARLINK-3576,PAYLOAD,2022-07-05 08:00:01,15.08848844,0.0001624,53.2161,269.686,54.4112,202.9001,-0.00090851,-0.00014721,0.0,0 STARLINK-3576,1 51883U 22022AH  22186.33334491 -.00014721  00000-0 -90851-3 0  9995,2 51883  53.2161 269.6860 0001624  54.4112 202.9001 15.08848844 20435,6917.853,95.437,540.842,538.595,0.0
51883.0,STARLINK-3576,PAYLOAD,2022-07-05 14:00:01,15.08830523,0.0001785,53.2161,268.5649,48.8929,127.1235,0.001149,0.00018041,0.0,0 STARLINK-3576,1 51883U 22022AH  22186.58334491  .00018041  00000-0  11490-2 0  9990,2 51883  53.2161 268.5649 0001785  48.8929 127.1235 15.08830523  1306,6917.909000000002,95.438,541.009,538.54,0.0
51883.0,STARLINK-3576,PAYLOAD,2022-07-05 22:00:00,15.0885769,0.0001721999999999,53.2159,267.0672,51.1675,136.4352,-0.0041824,-0.00066272,0.0,0 STARLINK-3576,1 51883U 22022AH  22186.91667824 -.00066272  00000-0 -41824-2 0  9991,2 51883  53.2159 267.0672 0001722  51.1675 136.4352 15.08857690  1306,6917.826,95.436,540.883,538.5,0.0
51883.0,STARLINK-3576,PAYLOAD,2022-07-06 14:00:01,15.08808424,0.0001933,53.2162,264.0756,50.2849,160.4804,0.0016895,0.0002668,0.0,0 STARLINK-3576,1 51883U 22022AH  22187.58334491  .00026680  00000-0  16895-2 0  9993,2 51883  53.2162 264.0756 0001933  50.2849 160.4804 15.08808424  1307,6917.977,95.44,541.179,538.505,0.0
51883.0,STARLINK-3576,PAYLOAD,2022-07-06 16:00:00,15.08802759,0.0001921,53.2161,263.7016,49.0826,254.5766,0.0029223,0.0004648,0.0,0 STARLINK-3576,1 51883U 22022AH  22187.66667824  .00046480  00000-0  29223-2 0  9990,2 51883  53.2161 263.7016 0001921  49.0826 254.5766 15.08802759 20644,6917.994000000002,95.44,541.188,538.53,0.0
51883.0,STARLINK-3576,PAYLOAD,2022-07-06 22:36:31,15.08827691,0.0001748,53.2181,262.4638,52.2785,307.8366,1.12e-05,-1.1e-06,0.0,0 STARLINK-3576,1 51883U 22022AH  22187.94202941 -.00000110  00000-0  11200-4 0  9995,2 51883  53.2181 262.4638 0001748  52.2785 307.8366 15.08827691 20683,6917.918000000002,95.438,540.992,538.5740000000002,0.0
51883.0,STARLINK-3576,PAYLOAD,2022-07-07 03:22:40,15.08827954,0.0001761999999999,53.2179,261.5719,52.2882,307.827,2.0019e-06,-2.56e-06,0.0,0 STARLINK-3576,1 51883U 22022AH  22188.14075100 -.00000256  00000-0  20019-5 0  9993,2 51883  53.2179 261.5719 0001762  52.2882 307.8270 15.08827954 20714,6917.917,95.438,541.001,538.563,0.0
51883.0,STARLINK-3576,PAYLOAD,2022-07-07 11:19:36,15.08834721,0.0001796,53.2179,260.0851,53.0671,307.0486,-4.0361e-06,-3.52e-06,0.0,0 STARLINK-3576,1 51883U 22022AH  22188.47194863 -.00000352  00000-0 -40361-5 0  9997,2 51883  53.2179 260.0851 0001796  53.0671 307.0486 15.08834721 20763,6917.897,95.438,541.004,538.519,0.0
51883.0,STARLINK-3576,PAYLOAD,2022-07-07 22:00:00,15.08850638,0.0001864,53.217,258.0878,51.9394,205.1605,-0.0011673,-0.00018823,0.0,0 STARLINK-3576,1 51883U 22022AH  22188.91667824 -.00018823  00000-0 -11673-2 0  9991,2 51883  53.2170 258.0878 0001864  51.9394 205.1605 15.08850638  1300,6917.848000000001,95.437,541.002,538.423,0.0
51883.0,STARLINK-3576,PAYLOAD,2022-07-08 03:13:27,15.08839128,0.0001869,53.2176,257.1125,51.1162,308.9996,4.3859e-05,4.1e-06,0.0,0 STARLINK-3576,1 51883U 22022AH  22189.13434536  .00000410  00000-0  43859-4 0  9992,2 51883  53.2176 257.1125 0001869  51.1162 308.9996 15.08839128 20869,6917.8830000000025,95.438,541.0409999999998,538.455,0.0
51883.0,STARLINK-3576,PAYLOAD,2022-07-08 14:00:01,15.08850982,0.000204,53.2172,255.097,49.309,231.0315,0.0030042,0.00047864,0.0,0 STARLINK-3576,1 51883U 22022AH  22189.58334491  .00047864  00000-0  30042-2 0  9992,2 51883  53.2172 255.0970 0002040  49.3090 231.0315 15.08850982  1301,6917.847,95.437,541.123,538.3009999999998,0.0
51883.0,STARLINK-3576,PAYLOAD,2022-07-08 22:00:01,15.08893084,0.0001801,53.2173,253.599,50.632,241.4036,-0.0033059,-0.00052594,0.0,0 STARLINK-3576,1 51883U 22022AH  22189.91668981 -.00052594  00000-0 -33059-2 0  9992,2 51883  53.2173 253.5990 0001801  50.6320 241.4036 15.08893084 20971,6917.718000000003,95.434,540.8290000000002,538.337,0.0
51883.0,STARLINK-3576,PAYLOAD,2022-07-09 08:00:01,15.08881518,0.0001792,53.2177,251.7229,48.5703,347.8716,-0.010427,-0.00162698,0.0,0 STARLINK-3576,1 51883U 22022AH  22190.33334491 -.00162698  00000-0 -10427-1 0  9996,2 51883  53.2177 251.7229 0001792  48.5703 347.8716 15.08881518 21044,6917.753000000002,95.435,540.8580000000002,538.379,0.0
51883.0,STARLINK-3576,PAYLOAD,2022-07-09 14:00:01,15.08800455,0.0001827,53.2173,250.6079,43.9932,271.1505,0.002615,0.0004153,0.0,0 STARLINK-3576,1 51883U 22022AH  22190.58334491  .00041530  00000-0  26150-2 0  9993,2 51883  53.2173 250.6079 0001827  43.9932 271.1505 15.08800455  1306,6918.001,95.44,541.13,538.602,0.0
51883.0,STARLINK-3576,PAYLOAD,2022-07-09 16:00:00,15.08809589,0.0001798,53.2171,250.2337,42.3278,5.7045,0.0019621,0.00031051,0.0,0 STARLINK-3576,1 51883U 22022AH  22190.66667824  .00031051  00000-0  19621-2 0  9993,2 51883  53.2171 250.2337 0001798  42.3278   5.7045 15.08809589 21095,6917.973000000001,95.439,541.082,538.594,0.0
51883.0,STARLINK-3576,PAYLOAD,2022-07-09 20:00:01,15.08839086,0.0001698,53.2172,249.4845,45.6345,188.1759,-0.0021348,-0.00034102,0.0,0 STARLINK-3576,1 51883U 22022AH  22190.83334491 -.00034102  00000-0 -21348-2 0  9994,2 51883  53.2172 249.4845 0001698  45.6345 188.1759 15.08839086  1305,6917.8830000000025,95.438,540.923,538.5740000000002,0.0
51883.0,STARLINK-3576,PAYLOAD,2022-07-10 06:00:00,15.08844418,0.0001616,53.2174,247.6091,49.7746,288.5064,-0.0013029,-0.00020966,0.0,0 STARLINK-3576,1 51883U 22022AH  22191.25001157 -.00020966  00000-0 -13029-2 0  9991,2 51883  53.2174 247.6091 0001616  49.7746 288.5064 15.08844418 21176,6917.8669999999975,95.437,540.85,538.614,0.0
51883.0,STARLINK-3576,PAYLOAD,2022-07-10 14:00:01,15.08810475,0.0001803,53.217,246.1192,44.3431,305.53,0.0026096,0.00041455,0.0,0 STARLINK-3576,1 51883U 22022AH  22191.58334491  .00041455  00000-0  26096-2 0  9999,2 51883  53.2170 246.1192 0001803  44.3431 305.5300 15.08810475  1300,6917.971,95.439,541.0830000000002,538.5880000000002,0.0
51883.0,STARLINK-3576,PAYLOAD,2022-07-10 22:00:00,15.0882839,0.0001629999999999,53.2168,244.6213,48.68600000000001,312.7705,0.00050963,7.829999999999999e-05,0.0,0 STARLINK-3576,1 51883U 22022AH  22191.91667824  .00007830  00000-0  50963-3 0  9995,2 51883  53.2168 244.6213 0001630  48.6860 312.7705 15.08828390  1310,6917.916,95.438,540.908,538.653,0.0
51883.0,STARLINK-3576,PAYLOAD,2022-07-11 06:00:00,15.08855324,0.0001643,53.2168,243.1255,50.4712,322.5638,-0.0014638,-0.00023519,0.0,0 STARLINK-3576,1 51883U 22022AH  22192.25001157 -.00023519  00000-0 -14638-2 0  9996,2 51883  53.2168 243.1255 0001643  50.4712 322.5638 15.08855324 21336,6917.834,95.437,540.835,538.562,0.0
51883.0,STARLINK-3576,PAYLOAD,2022-07-11 14:00:01,15.08821379,0.00018,53.2162,241.6305,44.7403,339.9036,0.0027074,0.00043042,0.0,0 STARLINK-3576,1 51883U 22022AH  22192.58334491  .00043042  00000-0  27074-2 0  9991,2 51883  53.2162 241.6305 0001800  44.7403 339.9036 15.08821379  1309,6917.937,95.439,541.048,538.557,0.0
51883.0,STARLINK-3576,PAYLOAD,2022-07-11 22:00:00,15.08834597,0.0001635,53.216,240.1324,49.7679,346.4737,0.0010852,0.00017023,0.0,0 STARLINK-3576,1 51883U 22022AH  22192.91667824  .00017023  00000-0  10852-2 0  9993,2 51883  53.2160 240.1324 0001635  49.7679 346.4737 15.08834597 21431,6917.897,95.438,540.893,538.631,0.0
51883.0,STARLINK-3576,PAYLOAD,2022-07-12 14:00:01,15.08845307,0.0001791,53.2154,237.1416,43.3529,16.1049,7.5741e-05,9.18e-06,0.0,0 STARLINK-3576,1 51883U 22022AH  22193.58334491  .00000918  00000-0  75741-4 0  9993,2 51883  53.2154 237.1416 0001791  43.3529  16.1049 15.08845307  1301,6917.864000000001,95.437,540.9680000000002,538.49,0.0
